{"epoch":1784762836,"count":18316,"objects":[{"id":"18357","name":"COSMOS 1885 (GLONASS)","type":"PAYLOAD","l1":"1 18357U 87079C   26202.47738466 -.00000089  00000-0  00000-0 0  9990","l2":"2 18357  65.5964 317.8629 0024574 208.1230 159.9314  2.13102561285878"},{"id":"19163","name":"COSMOS 1946 (GLONASS)","type":"PAYLOAD","l1":"1 19163U 88043A   26202.80481350 -.00000053  00000-0  00000-0 0  9993","l2":"2 19163  64.9876  72.4300 0004794  80.2171 133.3105  2.13102975296330"},{"id":"19164","name":"COSMOS 1947 (GLONASS)","type":"PAYLOAD","l1":"1 19164U 88043B   26203.13823992 -.00000052  00000-0  00000-0 0  9992","l2":"2 19164  64.9844  72.3361 0023749 224.2110 312.6962  2.13104191292045"},{"id":"19165","name":"COSMOS 1948 (GLONASS)","type":"PAYLOAD","l1":"1 19165U 88043C   26198.11017286 -.00000022  00000-0  00000-0 0  9992","l2":"2 19165  64.9730  72.3045 0004427 318.7819 220.5661  2.13102718296642"},{"id":"19501","name":"COSMOS 1970 (GLONASS)","type":"PAYLOAD","l1":"1 19501U 88085A   26199.28202688 -.00000072  00000-0  00000-0 0  9998","l2":"2 19501  65.2222 313.4187 0008990  40.6993 328.1562  2.13102005294445"},{"id":"19502","name":"COSMOS 1971 (GLONASS)","type":"PAYLOAD","l1":"1 19502U 88085B   26202.28947031 -.00000088  00000-0  00000-0 0  9999","l2":"2 19502  65.2132 313.2331 0022483  14.6195 347.2554  2.13101736280081"},{"id":"19503","name":"COSMOS 1972 (GLONASS)","type":"PAYLOAD","l1":"1 19503U 88085C   26199.35239264 -.00000072  00000-0  00000+0 0  9997","l2":"2 19503  65.2536 313.7987 0005361 197.0842 167.4060  2.13102327294304"},{"id":"19750","name":"COSMOS 1988 (GLONASS)","type":"PAYLOAD","l1":"1 19750U 89001B   26202.50092720 -.00000053  00000-0  00000-0 0  9996","l2":"2 19750  64.9667  71.4599 0014801 219.3835 319.0312  2.13101757292012"},{"id":"20024","name":"COSMOS 2022 (GLONASS)","type":"PAYLOAD","l1":"1 20024U 89039A   26201.27559590 -.00000082  00000-0  00000-0 0  9991","l2":"2 20024  64.9122 309.7428 0009543 208.7518 160.0657  2.13102290289047"},{"id":"20025","name":"COSMOS 2023 (GLONASS)","type":"PAYLOAD","l1":"1 20025U 89039B   26202.41753225 -.00000087  00000-0  00000-0 0  9995","l2":"2 20025  64.9380 310.0046 0021091 198.0370 157.8301  2.13104245288988"},{"id":"20619","name":"COSMOS 2079 (GLONASS)","type":"PAYLOAD","l1":"1 20619U 90045A   26203.44272736 -.00000086  00000-0  00000-0 0  9999","l2":"2 20619  64.6871 307.1814 0048367 204.6660 155.1627  2.13103466281507"},{"id":"20620","name":"COSMOS 2080 (GLONASS)","type":"PAYLOAD","l1":"1 20620U 90045B   26202.22385682 -.00000085  00000-0  00000-0 0  9990","l2":"2 20620  64.6827 307.1690 0023798  29.7909  23.4444  2.13103009281333"}]}