[
    {
        "OBJECT_NAME": "COSMOS 1885 [GLONASS]",
        "OBJECT_ID": "1987-079C",
        "EPOCH": "2026-07-21T11:27:26.034624",
        "MEAN_MOTION": 2.13102561,
        "ECCENTRICITY": 0.00245743,
        "INCLINATION": 65.5964,
        "RA_OF_ASC_NODE": 317.8629,
        "ARG_OF_PERICENTER": 208.123,
        "MEAN_ANOMALY": 159.9314,
        "EPHEMERIS_TYPE": 0,
        "CLASSIFICATION_TYPE": "U",
        "NORAD_CAT_ID": 18357,
        "ELEMENT_SET_NO": 999,
        "REV_AT_EPOCH": 28587,
        "BSTAR": 0,
        "MEAN_MOTION_DOT": -8.9e-07,
        "MEAN_MOTION_DDOT": 0
    },
    {
        "OBJECT_NAME": "COSMOS 1946 [GLONASS]",
        "OBJECT_ID": "1988-043A",
        "EPOCH": "2026-07-21T19:18:55.886400",
        "MEAN_MOTION": 2.13102975,
        "ECCENTRICITY": 0.00047936,
        "INCLINATION": 64.9876,
        "RA_OF_ASC_NODE": 72.43,
        "ARG_OF_PERICENTER": 80.2171,
        "MEAN_ANOMALY": 133.3105,
        "EPHEMERIS_TYPE": 0,
        "CLASSIFICATION_TYPE": "U",
        "NORAD_CAT_ID": 19163,
        "ELEMENT_SET_NO": 999,
        "REV_AT_EPOCH": 29633,
        "BSTAR": 0,
        "MEAN_MOTION_DOT": -5.3e-07,
        "MEAN_MOTION_DDOT": 0
    },
    {
        "OBJECT_NAME": "COSMOS 1947 [GLONASS]",
        "OBJECT_ID": "1988-043B",
        "EPOCH": "2026-07-22T03:19:03.929088",
        "MEAN_MOTION": 2.13104191,
        "ECCENTRICITY": 0.00237494,
        "INCLINATION": 64.9844,
        "RA_OF_ASC_NODE": 72.3361,
        "ARG_OF_PERICENTER": 224.211,
        "MEAN_ANOMALY": 312.6962,
        "EPHEMERIS_TYPE": 0,
        "CLASSIFICATION_TYPE": "U",
        "NORAD_CAT_ID": 19164,
        "ELEMENT_SET_NO": 999,
        "REV_AT_EPOCH": 29204,
        "BSTAR": 0,
        "MEAN_MOTION_DOT": -5.2e-07,
        "MEAN_MOTION_DDOT": 0
    },
    {
        "OBJECT_NAME": "COSMOS 1948 [GLONASS]",
        "OBJECT_ID": "1988-043C",
        "EPOCH": "2026-07-17T02:38:38.935104",
        "MEAN_MOTION": 2.13102718,
        "ECCENTRICITY": 0.00044266,
        "INCLINATION": 64.973,
        "RA_OF_ASC_NODE": 72.3045,
        "ARG_OF_PERICENTER": 318.7819,
        "MEAN_ANOMALY": 220.5661,
        "EPHEMERIS_TYPE": 0,
        "CLASSIFICATION_TYPE": "U",
        "NORAD_CAT_ID": 19165,
        "ELEMENT_SET_NO": 999,
        "REV_AT_EPOCH": 29664,
        "BSTAR": 0,
        "MEAN_MOTION_DOT": -2.2e-07,
        "MEAN_MOTION_DDOT": 0
    },
    {
        "OBJECT_NAME": "COSMOS 1970 [GLONASS]",
        "OBJECT_ID": "1988-085A",
        "EPOCH": "2026-07-18T06:46:07.122432",
        "MEAN_MOTION": 2.13102005,
        "ECCENTRICITY": 0.00089904,
        "INCLINATION": 65.2222,
        "RA_OF_ASC_NODE": 313.4187,
        "ARG_OF_PERICENTER": 40.6993,
        "MEAN_ANOMALY": 328.1562,
        "EPHEMERIS_TYPE": 0,
        "CLASSIFICATION_TYPE": "U",
        "NORAD_CAT_ID": 19501,
        "ELEMENT_SET_NO": 999,
        "REV_AT_EPOCH": 29444,
        "BSTAR": 0,
        "MEAN_MOTION_DOT": -7.2e-07,
        "MEAN_MOTION_DDOT": 0
    },
    {
        "OBJECT_NAME": "COSMOS 1971 [GLONASS]",
        "OBJECT_ID": "1988-085B",
        "EPOCH": "2026-07-21T06:56:50.234784",
        "MEAN_MOTION": 2.13101736,
        "ECCENTRICITY": 0.00224832,
        "INCLINATION": 65.2132,
        "RA_OF_ASC_NODE": 313.2331,
        "ARG_OF_PERICENTER": 14.6195,
        "MEAN_ANOMALY": 347.2554,
        "EPHEMERIS_TYPE": 0,
        "CLASSIFICATION_TYPE": "U",
        "NORAD_CAT_ID": 19502,
        "ELEMENT_SET_NO": 999,
        "REV_AT_EPOCH": 28008,
        "BSTAR": 0,
        "MEAN_MOTION_DOT": -8.8e-07,
        "MEAN_MOTION_DDOT": 0
    },
    {
        "OBJECT_NAME": "COSMOS 1972 [GLONASS]",
        "OBJECT_ID": "1988-085C",
        "EPOCH": "2026-07-18T08:27:26.724096",
        "MEAN_MOTION": 2.13102327,
        "ECCENTRICITY": 0.0005361,
        "INCLINATION": 65.2536,
        "RA_OF_ASC_NODE": 313.7987,
        "ARG_OF_PERICENTER": 197.0842,
        "MEAN_ANOMALY": 167.406,
        "EPHEMERIS_TYPE": 0,
        "CLASSIFICATION_TYPE": "U",
        "NORAD_CAT_ID": 19503,
        "ELEMENT_SET_NO": 999,
        "REV_AT_EPOCH": 29430,
        "BSTAR": 0,
        "MEAN_MOTION_DOT": -7.2e-07,
        "MEAN_MOTION_DDOT": 0
    },
    {
        "OBJECT_NAME": "COSMOS 1988 [GLONASS]",
        "OBJECT_ID": "1989-001B",
        "EPOCH": "2026-07-21T12:01:20.110080",
        "MEAN_MOTION": 2.13101757,
        "ECCENTRICITY": 0.00148011,
        "INCLINATION": 64.9667,
        "RA_OF_ASC_NODE": 71.4599,
        "ARG_OF_PERICENTER": 219.3835,
        "MEAN_ANOMALY": 319.0312,
        "EPHEMERIS_TYPE": 0,
        "CLASSIFICATION_TYPE": "U",
        "NORAD_CAT_ID": 19750,
        "ELEMENT_SET_NO": 999,
        "REV_AT_EPOCH": 29201,
        "BSTAR": 0,
        "MEAN_MOTION_DOT": -5.3e-07,
        "MEAN_MOTION_DDOT": 0
    },
    {
        "OBJECT_NAME": "COSMOS 2022 [GLONASS]",
        "OBJECT_ID": "1989-039A",
        "EPOCH": "2026-07-20T06:36:51.485760",
        "MEAN_MOTION": 2.1310229,
        "ECCENTRICITY": 0.00095429,
        "INCLINATION": 64.9122,
        "RA_OF_ASC_NODE": 309.7428,
        "ARG_OF_PERICENTER": 208.7518,
        "MEAN_ANOMALY": 160.0657,
        "EPHEMERIS_TYPE": 0,
        "CLASSIFICATION_TYPE": "U",
        "NORAD_CAT_ID": 20024,
        "ELEMENT_SET_NO": 999,
        "REV_AT_EPOCH": 28904,
        "BSTAR": 0,
        "MEAN_MOTION_DOT": -8.2e-07,
        "MEAN_MOTION_DDOT": 0
    },
    {
        "OBJECT_NAME": "COSMOS 2023 [GLONASS]",
        "OBJECT_ID": "1989-039B",
        "EPOCH": "2026-07-21T10:01:14.786400",
        "MEAN_MOTION": 2.13104245,
        "ECCENTRICITY": 0.00210906,
        "INCLINATION": 64.938,
        "RA_OF_ASC_NODE": 310.0046,
        "ARG_OF_PERICENTER": 198.037,
        "MEAN_ANOMALY": 157.8301,
        "EPHEMERIS_TYPE": 0,
        "CLASSIFICATION_TYPE": "U",
        "NORAD_CAT_ID": 20025,
        "ELEMENT_SET_NO": 999,
        "REV_AT_EPOCH": 28898,
        "BSTAR": 0,
        "MEAN_MOTION_DOT": -8.7e-07,
        "MEAN_MOTION_DDOT": 0
    },
    {
        "OBJECT_NAME": "COSMOS 2079 [GLONASS]",
        "OBJECT_ID": "1990-045A",
        "EPOCH": "2026-07-22T10:37:31.643904",
        "MEAN_MOTION": 2.13103466,
        "ECCENTRICITY": 0.00483673,
        "INCLINATION": 64.6871,
        "RA_OF_ASC_NODE": 307.1814,
        "ARG_OF_PERICENTER": 204.666,
        "MEAN_ANOMALY": 155.1627,
        "EPHEMERIS_TYPE": 0,
        "CLASSIFICATION_TYPE": "U",
        "NORAD_CAT_ID": 20619,
        "ELEMENT_SET_NO": 999,
        "REV_AT_EPOCH": 28150,
        "BSTAR": 0,
        "MEAN_MOTION_DOT": -8.6e-07,
        "MEAN_MOTION_DDOT": 0
    },
    {
        "OBJECT_NAME": "COSMOS 2080 [GLONASS]",
        "OBJECT_ID": "1990-045B",
        "EPOCH": "2026-07-21T05:22:21.229248",
        "MEAN_MOTION": 2.13103009,
        "ECCENTRICITY": 0.00237976,
        "INCLINATION": 64.6827,
        "RA_OF_ASC_NODE": 307.169,
        "ARG_OF_PERICENTER": 29.7909,
        "MEAN_ANOMALY": 23.4444,
        "EPHEMERIS_TYPE": 0,
        "CLASSIFICATION_TYPE": "U",
        "NORAD_CAT_ID": 20620,
        "ELEMENT_SET_NO": 999,
        "REV_AT_EPOCH": 28133,
        "BSTAR": 0,
        "MEAN_MOTION_DOT": -8.5e-07,
        "MEAN_MOTION_DDOT": 0
    }
]
